ONEWEB-0288             
1 49078U 21075D   26058.23724786  .00000393  00000+0  10577-2 0  9999
2 49078  87.8987  12.4757 0001984  79.4321 280.7031 13.12442421220763
ONEWEB-0291             
1 49081U 21075G   26057.37241568  .00000048  00000+0  91477-4 0  9996
2 49081  87.9134  27.8618 0002230  78.2411 281.8970 13.17649274219010
ONEWEB-0296             
1 49085U 21075L   26058.14745213  .00000068  00000+0  15473-3 0  9995
2 49085  87.8993  12.4988 0002143  74.7605 285.3761 13.12443026220140
ONEWEB-0300             
1 49089U 21075Q   26058.24657185  .00000483  00000+0  13060-2 0  9990
2 49089  87.8989  12.4727 0001520  75.5122 284.6175 13.12442341220781
ONEWEB-0304             
1 49092U 21075T   26057.90903635  .00000062  00000+0  12592-3 0  9993
2 49092  87.9139  27.7683 0001963  79.6193 280.5160 13.17648112219053
ONEWEB-0310             
1 49096U 21075X   26058.14915040  .00000066  00000+0  14940-3 0  9990
2 49096  87.8981  12.5252 0001827  81.7354 278.3982 13.12444413220756
ONEWEB-0313             
1 49099U 21075AA  26058.16033365  .00000019  00000+0  16098-4 0  9991
2 49099  87.9126  27.7313 0001903  78.7391 281.3954 13.17648626219106
ONEWEB-0317             
1 49103U 21075AE  26057.59176573 -.00000410  00000+0 -11741-2 0  9997
2 49103  87.8990  12.6136 0002193 100.3072 259.8304 13.12441575220689
ONEWEB-0329             
1 49107U 21075AJ  26058.15033670  .00000034  00000+0  53321-4 0  9996
2 49107  87.9129  27.7216 0001987  79.1298 281.0057 13.17648958219091
ONEWEB-0303             
1 49187U 21083B   26058.20723842 -.00000004  00000+0 -43327-4 0  9990
2 49187  87.9244 357.2959 0001856  73.8114 286.3222 13.18685508215489
ONEWEB-0321             
1 49191U 21083F   26058.20206253  .00000008  00000+0 -11778-4 0  9995
2 49191  87.9194 296.3929 0001760  94.4827 265.6507 13.20772581222319
ONEWEB-0325             
1 49194U 21083J   26058.26992292 -.00000007  00000+0 -50913-4 0  9993
2 49194  87.9238 357.2906 0001789  81.4677 278.6658 13.18684893215524
ONEWEB-0331             
1 49198U 21083N   26058.27817004 -.00000030  00000+0 -10874-3 0  9992
2 49198  87.9243 357.2709 0001988  69.3553 290.7792 13.18685635215523
ONEWEB-0336             
1 49202U 21083S   26058.25820636 -.00000075  00000+0 -24069-3 0  9991
2 49202  87.9037 342.0929 0002012  66.3052 293.8288 13.13467992216485
