
    {
      "objectName": "ONEWEB-0288",
      "objectId": "2021-075D",
      "noradId": 49078,
      "epochUtc": "2026-02-27T05:41:38.215104",
      "meanMotionRevPerDay": 13.12442421,
      "eccentricity": 0.0001984,
      "inclinationDeg": 87.8987,
      "raanDeg": 12.4757,
      "argPerigeeDeg": 79.4321,
      "meanAnomalyDeg": 280.7031,
      "bstar": 0.0010576899,
      "meanMotionDot": 0.00000393,
      "meanMotionDdot": 0,
      "elementSetNo": 999,
      "revAtEpoch": 22076
    },
    {
      "objectName": "ONEWEB-0291",
      "objectId": "2021-075G",
      "noradId": 49081,
      "epochUtc": "2026-02-26T08:56:16.714752",
      "meanMotionRevPerDay": 13.17649274,
      "eccentricity": 0.000223,
      "inclinationDeg": 87.9134,
      "raanDeg": 27.8618,
      "argPerigeeDeg": 78.2411,
      "meanAnomalyDeg": 281.897,
      "bstar": 0.000091477,
      "meanMotionDot": 4.8e-7,
      "meanMotionDdot": 0,
      "elementSetNo": 999,
      "revAtEpoch": 21901
    },
    {
      "objectName": "ONEWEB-0296",
      "objectId": "2021-075L",
      "noradId": 49085,
      "epochUtc": "2026-02-27T03:32:19.864032",
      "meanMotionRevPerDay": 13.12443026,
      "eccentricity": 0.00021434,
      "inclinationDeg": 87.8993,
      "raanDeg": 12.4988,
      "argPerigeeDeg": 74.7605,
      "meanAnomalyDeg": 285.3761,
      "bstar": 0.00015473132,
      "meanMotionDot": 6.8e-7,
      "meanMotionDdot": 0,
      "elementSetNo": 999,
      "revAtEpoch": 22014
    },
    {
      "objectName": "ONEWEB-0300",
      "objectId": "2021-075Q",
      "noradId": 49089,
      "epochUtc": "2026-02-27T05:55:03.807840",
      "meanMotionRevPerDay": 13.12442341,
      "eccentricity": 0.00015201,
      "inclinationDeg": 87.8989,
      "raanDeg": 12.4727,
      "argPerigeeDeg": 75.5122,
      "meanAnomalyDeg": 284.6175,
      "bstar": 0.0013059672,
      "meanMotionDot": 0.00000483,
      "meanMotionDdot": 0,
      "elementSetNo": 999,
      "revAtEpoch": 22078
    },
    {
      "objectName": "ONEWEB-0304",
      "objectId": "2021-075T",
      "noradId": 49092,
      "epochUtc": "2026-02-26T21:49:00.740640",
      "meanMotionRevPerDay": 13.17648112,
      "eccentricity": 0.0001963,
      "inclinationDeg": 87.9139,
      "raanDeg": 27.7683,
      "argPerigeeDeg": 79.6193,
      "meanAnomalyDeg": 280.516,
      "bstar": 0.00012592,
      "meanMotionDot": 6.2e-7,
      "meanMotionDdot": 0,
      "elementSetNo": 999,
      "revAtEpoch": 21905
    },
    {
      "objectName": "ONEWEB-0310",
      "objectId": "2021-075X",
      "noradId": 49096,
      "epochUtc": "2026-02-27T03:34:46.594560",
      "meanMotionRevPerDay": 13.12444413,
      "eccentricity": 0.00018275,
      "inclinationDeg": 87.8981,
      "raanDeg": 12.5252,
      "argPerigeeDeg": 81.7354,
      "meanAnomalyDeg": 278.3982,
      "bstar": 0.00014939783,
      "meanMotionDot": 6.6e-7,
      "meanMotionDdot": 0,
      "elementSetNo": 999,
      "revAtEpoch": 22075
    },
    {
      "objectName": "ONEWEB-0313",
      "objectId": "2021-075AA",
      "noradId": 49099,
      "epochUtc": "2026-02-27T03:50:52.827360",
      "meanMotionRevPerDay": 13.17648626,
      "eccentricity": 0.00019039,
      "inclinationDeg": 87.9126,
      "raanDeg": 27.7313,
      "argPerigeeDeg": 78.7391,
      "meanAnomalyDeg": 281.3954,
      "bstar": 0.000016097512,
      "meanMotionDot": 1.9e-7,
      "meanMotionDdot": 0,
      "elementSetNo": 999,
      "revAtEpoch": 21910
    },
    {
      "objectName": "ONEWEB-0317",
      "objectId": "2021-075AE",
      "noradId": 49103,
      "epochUtc": "2026-02-26T14:12:08.559072",
      "meanMotionRevPerDay": 13.12441575,
      "eccentricity": 0.0002193,
      "inclinationDeg": 87.899,
      "raanDeg": 12.6136,
      "argPerigeeDeg": 100.3072,
      "meanAnomalyDeg": 259.8304,
      "bstar": -0.0011741,
      "meanMotionDot": -0.0000041,
      "meanMotionDdot": 0,
      "elementSetNo": 999,
      "revAtEpoch": 22068
    },
    {
      "objectName": "ONEWEB-0329",
      "objectId": "2021-075AJ",
      "noradId": 49107,
      "epochUtc": "2026-02-27T03:36:29.090880",
      "meanMotionRevPerDay": 13.17648958,
      "eccentricity": 0.00019871,
      "inclinationDeg": 87.9129,
      "raanDeg": 27.7216,
      "argPerigeeDeg": 79.1298,
      "meanAnomalyDeg": 281.0057,
      "bstar": 0.000053321301,
      "meanMotionDot": 3.4e-7,
      "meanMotionDdot": 0,
      "elementSetNo": 999,
      "revAtEpoch": 21909
    },
    {
      "objectName": "ONEWEB-0303",
      "objectId": "2021-083B",
      "noradId": 49187,
      "epochUtc": "2026-02-27T04:58:25.399488",
      "meanMotionRevPerDay": 13.18685508,
      "eccentricity": 0.00018566,
      "inclinationDeg": 87.9244,
      "raanDeg": 357.2959,
      "argPerigeeDeg": 73.8114,
      "meanAnomalyDeg": 286.3222,
      "bstar": -0.000043327143,
      "meanMotionDot": -4e-8,
      "meanMotionDdot": 0,
      "elementSetNo": 999,
      "revAtEpoch": 21548
    },
    {
      "objectName": "ONEWEB-0321",
      "objectId": "2021-083F",
      "noradId": 49191,
      "epochUtc": "2026-02-27T04:50:58.202592",
      "meanMotionRevPerDay": 13.20772581,
      "eccentricity": 0.00017606,
      "inclinationDeg": 87.9194,
      "raanDeg": 296.3929,
      "argPerigeeDeg": 94.4827,
      "meanAnomalyDeg": 265.6507,
      "bstar": -0.000011777519,
      "meanMotionDot": 8e-8,
      "meanMotionDdot": 0,
      "elementSetNo": 999,
      "revAtEpoch": 22231
    },
    {
      "objectName": "ONEWEB-0325",
      "objectId": "2021-083J",
      "noradId": 49194,
      "epochUtc": "2026-02-27T06:28:41.340288",
      "meanMotionRevPerDay": 13.18684893,
      "eccentricity": 0.00017896,
      "inclinationDeg": 87.9238,
      "raanDeg": 357.2906,
      "argPerigeeDeg": 81.4677,
      "meanAnomalyDeg": 278.6658,
      "bstar": -0.000050913096,
      "meanMotionDot": -7e-8,
      "meanMotionDdot": 0,
      "elementSetNo": 999,
      "revAtEpoch": 21552
    },
    {
      "objectName": "ONEWEB-0331",
      "objectId": "2021-083N",
      "noradId": 49198,
      "epochUtc": "2026-02-27T06:40:33.891456",
      "meanMotionRevPerDay": 13.18685635,
      "eccentricity": 0.00019884,
      "inclinationDeg": 87.9243,
      "raanDeg": 357.2709,
      "argPerigeeDeg": 69.3553,
      "meanAnomalyDeg": 290.7792,
      "bstar": -0.0001087377,
      "meanMotionDot": -3e-7,
      "meanMotionDdot": 0,
      "elementSetNo": 999,
      "revAtEpoch": 21552
    },
    {
      "objectName": "ONEWEB-0336",
      "objectId": "2021-083S",
      "noradId": 49202,
      "epochUtc": "2026-02-27T06:11:49.029504",
      "meanMotionRevPerDay": 13.13467992,
      "eccentricity": 0.00020126,
      "inclinationDeg": 87.9037,
      "raanDeg": 342.0929,
      "argPerigeeDeg": 66.3052,
      "meanAnomalyDeg": 293.8288,
      "bstar": -0.00024068819,
      "meanMotionDot": -7.5e-7,
      "meanMotionDdot": 0,
      "elementSetNo": 999,
      "revAtEpoch": 21648
    }